[{"OBJECT_NAME":"STARLINK-35720","OBJECT_ID":"2025-294Y","EPOCH":"2026-03-09T21:46:41.755008","MEAN_MOTION":15.27587029,"ECCENTRICITY":0.00014529,"INCLINATION":43.0044,"RA_OF_ASC_NODE":36.7413,"ARG_OF_PERICENTER":247.9549,"MEAN_ANOMALY":112.1149,"EPHEMERIS_TYPE":0,"CLASSIFICATION_TYPE":"U","NORAD_CAT_ID":67052,"ELEMENT_SET_NO":999,"REV_AT_EPOCH":1483,"BSTAR":0.0011897905,"MEAN_MOTION_DOT":0.0003263,"MEAN_MOTION_DDOT":0},{"OBJECT_NAME":"CZ-2C R\/B","OBJECT_ID":"2017-085D","EPOCH":"2026-03-09T07:36:19.955232","MEAN_MOTION":15.36259494,"ECCENTRICITY":0.00550258,"INCLINATION":34.6583,"RA_OF_ASC_NODE":163.0948,"ARG_OF_PERICENTER":204.4819,"MEAN_ANOMALY":155.3278,"EPHEMERIS_TYPE":0,"CLASSIFICATION_TYPE":"U","NORAD_CAT_ID":43084,"ELEMENT_SET_NO":999,"REV_AT_EPOCH":45326,"BSTAR":0.00049058122,"MEAN_MOTION_DOT":0.00018774,"MEAN_MOTION_DDOT":0}]
